[{"OBJECT_NAME":"STARLINK-3685","OBJECT_ID":"2022-029AD","EPOCH":"2026-03-09T06:27:57.002400","MEAN_MOTION":15.0883145,"ECCENTRICITY":0.00013346,"INCLINATION":53.2174,"RA_OF_ASC_NODE":81.0082,"ARG_OF_PERICENTER":90.6968,"MEAN_ANOMALY":269.4177,"EPHEMERIS_TYPE":0,"CLASSIFICATION_TYPE":"U","NORAD_CAT_ID":52115,"ELEMENT_SET_NO":999,"REV_AT_EPOCH":22072,"BSTAR":0.00010459442,"MEAN_MOTION_DOT":1.377e-5,"MEAN_MOTION_DDOT":0},{"OBJECT_NAME":"CZ-6A DEB","OBJECT_ID":"2024-140KE","EPOCH":"2026-03-09T13:17:54.060288","MEAN_MOTION":15.16973657,"ECCENTRICITY":0.0047014,"INCLINATION":88.8608,"RA_OF_ASC_NODE":269.4441,"ARG_OF_PERICENTER":134.0266,"MEAN_ANOMALY":226.4867,"EPHEMERIS_TYPE":0,"CLASSIFICATION_TYPE":"U","NORAD_CAT_ID":60875,"ELEMENT_SET_NO":999,"REV_AT_EPOCH":8467,"BSTAR":0.004516425,"MEAN_MOTION_DOT":0.00092692,"MEAN_MOTION_DDOT":0}]
